[{"OBJECT_NAME":"1998-067XK","OBJECT_ID":"1998-067XK","EPOCH":"2025-09-24T11:13:52.699584","MEAN_MOTION":15.51872944,"ECCENTRICITY":7.637e-5,"INCLINATION":51.633,"RA_OF_ASC_NODE":174.9371,"ARG_OF_PERICENTER":109.1829,"MEAN_ANOMALY":250.9243,"EPHEMERIS_TYPE":0,"CLASSIFICATION_TYPE":"U","NORAD_CAT_ID":65731,"ELEMENT_SET_NO":999,"REV_AT_EPOCH":78,"BSTAR":0.0010544137,"MEAN_MOTION_DOT":0.00064386,"MEAN_MOTION_DDOT":0},{"OBJECT_NAME":"1998-067XL","OBJECT_ID":"1998-067XL","EPOCH":"2025-09-24T11:13:50.654496","MEAN_MOTION":15.51968466,"ECCENTRICITY":6.763e-5,"INCLINATION":51.6337,"RA_OF_ASC_NODE":174.9363,"ARG_OF_PERICENTER":97.6691,"MEAN_ANOMALY":262.4375,"EPHEMERIS_TYPE":0,"CLASSIFICATION_TYPE":"U","NORAD_CAT_ID":65732,"ELEMENT_SET_NO":999,"REV_AT_EPOCH":79,"BSTAR":0.0013237369,"MEAN_MOTION_DOT":0.00081406,"MEAN_MOTION_DDOT":0},{"OBJECT_NAME":"1998-067XM","OBJECT_ID":"1998-067XM","EPOCH":"2025-09-24T00:24:29.619072","MEAN_MOTION":15.52001109,"ECCENTRICITY":0.00044895,"INCLINATION":51.6337,"RA_OF_ASC_NODE":177.175,"ARG_OF_PERICENTER":61.7209,"MEAN_ANOMALY":298.4234,"EPHEMERIS_TYPE":0,"CLASSIFICATION_TYPE":"U","NORAD_CAT_ID":65733,"ELEMENT_SET_NO":999,"REV_AT_EPOCH":72,"BSTAR":0.0016709087,"MEAN_MOTION_DOT":0.00103317,"MEAN_MOTION_DDOT":0}]
