1998-067XK              
1 65731U 98067XK  25267.46797106  .00064386  00000+0  10544-2 0  9996
2 65731  51.6330 174.9371 0000763 109.1829 250.9243 15.51872944   786
1998-067XL              
1 65732U 98067XL  25267.46794739  .00081406  00000+0  13237-2 0  9990
2 65732  51.6337 174.9363 0000676  97.6691 262.4375 15.51968466   796
1998-067XM              
1 65733U 98067XM  25267.01700948  .00103317  00000+0  16709-2 0  9994
2 65733  51.6337 177.1750 0004489  61.7209 298.4234 15.52001109   724
